[{"OBJECT_NAME":"STARLINK-35898","OBJECT_ID":"2025-280F","EPOCH":"2026-03-09T21:57:09.540000","MEAN_MOTION":14.98331395,"ECCENTRICITY":0.00023614,"INCLINATION":70.0019,"RA_OF_ASC_NODE":333.7246,"ARG_OF_PERICENTER":270.0315,"MEAN_ANOMALY":90.0573,"EPHEMERIS_TYPE":0,"CLASSIFICATION_TYPE":"U","NORAD_CAT_ID":66826,"ELEMENT_SET_NO":999,"REV_AT_EPOCH":1611,"BSTAR":0.00051675737,"MEAN_MOTION_DOT":6.078e-5,"MEAN_MOTION_DDOT":0},{"OBJECT_NAME":"OBJECT F","OBJECT_ID":"2025-026F","EPOCH":"2026-03-09T16:35:22.568352","MEAN_MOTION":14.96835273,"ECCENTRICITY":0.001234,"INCLINATION":81.996,"RA_OF_ASC_NODE":175.2789,"ARG_OF_PERICENTER":38.1083,"MEAN_ANOMALY":322.1008,"EPHEMERIS_TYPE":0,"CLASSIFICATION_TYPE":"U","NORAD_CAT_ID":63330,"ELEMENT_SET_NO":999,"REV_AT_EPOCH":5316,"BSTAR":0.00045702,"MEAN_MOTION_DOT":5.266e-5,"MEAN_MOTION_DDOT":0}]
